{
  "type": "FeatureCollection",
  "features": [
    {
      "type": "Feature",
      "properties": {
        "norad_id": 29954,
        "name": "FENGYUN 1C DEB",
        "group": "fengyun-1c-debris",
        "lat": -18.666060773084777,
        "lon": 38.909121814601455,
        "alt_km": 788.9452665546896,
        "timestamp": "2025-12-21T18:54:58.769231+00:00",
        "meta_object_name": "FENGYUN 1C DEB",
        "meta_object_id": "1999-025KC",
        "meta_epoch": "2025-12-21T08:57:34.160256",
        "meta_mean_motion": 14.34268298,
        "meta_eccentricity": 0.00746061,
        "meta_inclination": 100.1502,
        "meta_ra_of_asc_node": 34.9531,
        "meta_arg_of_pericenter": 244.9047,
        "meta_mean_anomaly": 114.4377,
        "meta_ephemeris_type": 0,
        "meta_classification_type": "U",
        "meta_norad_cat_id": 29954,
        "meta_element_set_no": 999,
        "meta_rev_at_epoch": 98311,
        "meta_bstar": 0.00063918749,
        "meta_mean_motion_dot": 1.793e-05,
        "meta_mean_motion_ddot": 0,
        "tle_line1": "1 29954U 99025KC  25355.37331204  .00001793  00000+0  63919-3 0  9997",
        "tle_line2": "2 29954 100.1502  34.9531 0074606 244.9047 114.4377 14.34268298983114"
      },
      "geometry": {
        "type": "Point",
        "coordinates": [
          38.909121814601455,
          -18.666060773084777
        ]
      }
    },
    {
      "type": "Feature",
      "properties": {
        "norad_id": 29955,
        "name": "FENGYUN 1C DEB",
        "group": "fengyun-1c-debris",
        "lat": -22.929173181349146,
        "lon": -106.79027819998606,
        "alt_km": 764.0266952238662,
        "timestamp": "2025-12-21T18:54:58.769241+00:00",
        "meta_object_name": "FENGYUN 1C DEB",
        "meta_object_id": "1999-025KD",
        "meta_epoch": "2025-12-20T19:09:46.123200",
        "meta_mean_motion": 14.38304065,
        "meta_eccentricity": 0.0008068,
        "meta_inclination": 99.2737,
        "meta_ra_of_asc_node": 76.1051,
        "meta_arg_of_pericenter": 225.5959,
        "meta_mean_anomaly": 255.7337,
        "meta_ephemeris_type": 0,
        "meta_classification_type": "U",
        "meta_norad_cat_id": 29955,
        "meta_element_set_no": 999,
        "meta_rev_at_epoch": 98177,
        "meta_bstar": 0.00093089889,
        "meta_mean_motion_dot": 2.784e-05,
        "meta_mean_motion_ddot": 0,
        "tle_line1": "1 29955U 99025KD  25354.79845050  .00002784  00000+0  93090-3 0  9996",
        "tle_line2": "2 29955  99.2737  76.1051 0008068 225.5959 255.7337 14.38304065981776"
      },
      "geometry": {
        "type": "Point",
        "coordinates": [
          -106.79027819998606,
          -22.929173181349146
        ]
      }
    },
    {
      "type": "Feature",
      "properties": {
        "norad_id": 29956,
        "name": "FENGYUN 1C DEB",
        "group": "fengyun-1c-debris",
        "lat": -57.64510329742465,
        "lon": 38.51703352027134,
        "alt_km": 855.0108902950878,
        "timestamp": "2025-12-21T18:54:58.769251+00:00",
        "meta_object_name": "FENGYUN 1C DEB",
        "meta_object_id": "1999-025KE",
        "meta_epoch": "2025-12-21T14:36:07.596000",
        "meta_mean_motion": 14.06172833,
        "meta_eccentricity": 0.00532631,
        "meta_inclination": 98.7906,
        "meta_ra_of_asc_node": 24.2049,
        "meta_arg_of_pericenter": 352.629,
        "meta_mean_anomaly": 119.696,
        "meta_ephemeris_type": 0,
        "meta_classification_type": "U",
        "meta_norad_cat_id": 29956,
        "meta_element_set_no": 999,
        "meta_rev_at_epoch": 97174,
        "meta_bstar": 0.00016998742,
        "meta_mean_motion_dot": 2.4e-06,
        "meta_mean_motion_ddot": 0,
        "tle_line1": "1 29956U 99025KE  25355.60842125  .00000240  00000+0  16999-3 0  9996",
        "tle_line2": "2 29956  98.7906  24.2049 0053263 352.6290 119.6960 14.06172833971744"
      },
      "geometry": {
        "type": "Point",
        "coordinates": [
          38.51703352027134,
          -57.64510329742465
        ]
      }
    },
    {
      "type": "Feature",
      "properties": {
        "norad_id": 29957,
        "name": "FENGYUN 1C DEB",
        "group": "fengyun-1c-debris",
        "lat": 21.559201665171155,
        "lon": 119.74589180045699,
        "alt_km": 737.7772270753867,
        "timestamp": "2025-12-21T18:54:58.769261+00:00",
        "meta_object_name": "FENGYUN 1C DEB",
        "meta_object_id": "1999-025KF",
        "meta_epoch": "2025-12-20T21:51:21.132864",
        "meta_mean_motion": 14.51369153,
        "meta_eccentricity": 0.0037148,
        "meta_inclination": 98.9205,
        "meta_ra_of_asc_node": 122.3733,
        "meta_arg_of_pericenter": 154.5353,
        "meta_mean_anomaly": 325.3729,
        "meta_ephemeris_type": 0,
        "meta_classification_type": "U",
        "meta_norad_cat_id": 29957,
        "meta_element_set_no": 999,
        "meta_rev_at_epoch": 97610,
        "meta_bstar": 0.0027917,
        "meta_mean_motion_dot": 0.00011194,
        "meta_mean_motion_ddot": 0,
        "tle_line1": "1 29957U 99025KF  25354.91066126  .00011194  00000+0  27917-2 0  9990",
        "tle_line2": "2 29957  98.9205 122.3733 0037148 154.5353 325.3729 14.51369153976109"
      },
      "geometry": {
        "type": "Point",
        "coordinates": [
          119.74589180045699,
          21.559201665171155
        ]
      }
    },
    {
      "type": "Feature",
      "properties": {
        "norad_id": 29958,
        "name": "FENGYUN 1C DEB",
        "group": "fengyun-1c-debris",
        "lat": 2.3178394246522522,
        "lon": -169.75720728523157,
        "alt_km": 871.4014717402752,
        "timestamp": "2025-12-21T18:54:58.769271+00:00",
        "meta_object_name": "FENGYUN 1C DEB",
        "meta_object_id": "1999-025KG",
        "meta_epoch": "2025-12-21T11:17:03.356736",
        "meta_mean_motion": 14.14467635,
        "meta_eccentricity": 0.00539595,
        "meta_inclination": 98.6678,
        "meta_ra_of_asc_node": 9.5804,
        "meta_arg_of_pericenter": 307.9673,
        "meta_mean_anomaly": 51.6633,
        "meta_ephemeris_type": 0,
        "meta_classification_type": "U",
        "meta_norad_cat_id": 29958,
        "meta_element_set_no": 999,
        "meta_rev_at_epoch": 97574,
        "meta_bstar": 0.00025949851,
        "meta_mean_motion_dot": 4.61e-06,
        "meta_mean_motion_ddot": 0,
        "tle_line1": "1 29958U 99025KG  25355.47017774  .00000461  00000+0  25950-3 0  9999",
        "tle_line2": "2 29958  98.6678   9.5804 0053959 307.9673  51.6633 14.14467635975748"
      },
      "geometry": {
        "type": "Point",
        "coordinates": [
          -169.75720728523157,
          2.3178394246522522
        ]
      }
    },
    {
      "type": "Feature",
      "properties": {
        "norad_id": 29959,
        "name": "FENGYUN 1C DEB",
        "group": "fengyun-1c-debris",
        "lat": -58.69150400414458,
        "lon": -168.5651108287655,
        "alt_km": 866.0105612454627,
        "timestamp": "2025-12-21T18:54:58.769281+00:00",
        "meta_object_name": "FENGYUN 1C DEB",
        "meta_object_id": "1999-025KH",
        "meta_epoch": "2025-12-21T07:49:10.280352",
        "meta_mean_motion": 14.06018373,
        "meta_eccentricity": 0.0041445,
        "meta_inclination": 98.8071,
        "meta_ra_of_asc_node": 25.7529,
        "meta_arg_of_pericenter": 303.3237,
        "meta_mean_anomaly": 117.8191,
        "meta_ephemeris_type": 0,
        "meta_classification_type": "U",
        "meta_norad_cat_id": 29959,
        "meta_element_set_no": 999,
        "meta_rev_at_epoch": 97061,
        "meta_bstar": 0.00020479,
        "meta_mean_motion_dot": 2.95e-06,
        "meta_mean_motion_ddot": 0,
        "tle_line1": "1 29959U 99025KH  25355.32581343  .00000295  00000+0  20479-3 0  9998",
        "tle_line2": "2 29959  98.8071  25.7529 0041445 303.3237 117.8191 14.06018373970612"
      },
      "geometry": {
        "type": "Point",
        "coordinates": [
          -168.5651108287655,
          -58.69150400414458
        ]
      }
    },
    {
      "type": "Feature",
      "properties": {
        "norad_id": 29960,
        "name": "FENGYUN 1C DEB",
        "group": "fengyun-1c-debris",
        "lat": -64.6402486119242,
        "lon": -0.27775717230667846,
        "alt_km": 790.1314972629443,
        "timestamp": "2025-12-21T18:54:58.769291+00:00",
        "meta_object_name": "FENGYUN 1C DEB",
        "meta_object_id": "1999-025KJ",
        "meta_epoch": "2025-12-20T21:30:20.822112",
        "meta_mean_motion": 14.16416905,
        "meta_eccentricity": 0.0090795,
        "meta_inclination": 98.6152,
        "meta_ra_of_asc_node": 340.2046,
        "meta_arg_of_pericenter": 262.6181,
        "meta_mean_anomaly": 164.4203,
        "meta_ephemeris_type": 0,
        "meta_classification_type": "U",
        "meta_norad_cat_id": 29960,
        "meta_element_set_no": 999,
        "meta_rev_at_epoch": 97570,
        "meta_bstar": 0.00031039,
        "meta_mean_motion_dot": 5.99e-06,
        "meta_mean_motion_ddot": 0,
        "tle_line1": "1 29960U 99025KJ  25354.89607433  .00000599  00000+0  31039-3 0  9991",
        "tle_line2": "2 29960  98.6152 340.2046 0090795 262.6181 164.4203 14.16416905975709"
      },
      "geometry": {
        "type": "Point",
        "coordinates": [
          -0.27775717230667846,
          -64.6402486119242
        ]
      }
    }
  ]
}